[Satellite]
VERSION=1.1
NAME=GLOBALSTAR M019
NICKNAME=GLOBALSTAR M019
TLE1=1 25677U 99019B   17186.25543698  .00000031  00000-0  12605-2 0  9990
TLE2=2 25677  51.9859 227.4091 0001455 200.6416 233.3754 12.13800419832699
